CCSDS_OMM_VERS = 2.0
CREATION_DATE  = 
ORIGINATOR     = 

OBJECT_NAME    = COSMOS 2242
OBJECT_ID      = 1993-024A
CENTER_NAME    = EARTH
REF_FRAME      = TEME
TIME_SYSTEM    = UTC
MEAN_ELEMENT_THEORY = SGP/SGP4

EPOCH          = 2026-04-03T21:48:50.335488
MEAN_MOTION    = 14.96671287
ECCENTRICITY   = .00154972
INCLINATION    = 82.5174
RA_OF_ASC_NODE = 242.5872
ARG_OF_PERICENTER = 216.6596
MEAN_ANOMALY   = 143.3568

EPHEMERIS_TYPE = 0
CLASSIFICATION_TYPE = U
NORAD_CAT_ID   = 22626
ELEMENT_SET_NO = 999
REV_AT_EPOCH   = 78416
BSTAR          = .35195187E-3
MEAN_MOTION_DOT = .4049E-4
MEAN_MOTION_DDOT = 0

CCSDS_OMM_VERS = 2.0
CREATION_DATE  = 
ORIGINATOR     = 

OBJECT_NAME    = SL-16 R/B
OBJECT_ID      = 1993-059B
CENTER_NAME    = EARTH
REF_FRAME      = TEME
TIME_SYSTEM    = UTC
MEAN_ELEMENT_THEORY = SGP/SGP4

EPOCH          = 2026-04-03T22:57:38.755584
MEAN_MOTION    = 14.17234867
ECCENTRICITY   = .00170849
INCLINATION    = 70.9906
RA_OF_ASC_NODE = 317.8462
ARG_OF_PERICENTER = 179.1684
MEAN_ANOMALY   = 180.9472

EPHEMERIS_TYPE = 0
CLASSIFICATION_TYPE = U
NORAD_CAT_ID   = 22803
ELEMENT_SET_NO = 999
REV_AT_EPOCH   = 68311
BSTAR          = .66080844E-4
MEAN_MOTION_DOT = .86E-6
MEAN_MOTION_DDOT = 0

CCSDS_OMM_VERS = 2.0
CREATION_DATE  = 
ORIGINATOR     = 

OBJECT_NAME    = ARIANE 40 R/B
OBJECT_ID      = 1993-061H
CENTER_NAME    = EARTH
REF_FRAME      = TEME
TIME_SYSTEM    = UTC
MEAN_ELEMENT_THEORY = SGP/SGP4

EPOCH          = 2026-04-04T04:28:42.630528
MEAN_MOTION    = 14.32875666
ECCENTRICITY   = .00103537
INCLINATION    = 98.4870
RA_OF_ASC_NODE = 162.5652
ARG_OF_PERICENTER = 202.6778
MEAN_ANOMALY   = 157.3950

EPHEMERIS_TYPE = 0
CLASSIFICATION_TYPE = U
NORAD_CAT_ID   = 22830
ELEMENT_SET_NO = 999
REV_AT_EPOCH   = 69775
BSTAR          = .14028014E-3
MEAN_MOTION_DOT = .34E-5
MEAN_MOTION_DDOT = 0

CCSDS_OMM_VERS = 2.0
CREATION_DATE  = 
ORIGINATOR     = 

OBJECT_NAME    = COSMOS 2278
OBJECT_ID      = 1994-023A
CENTER_NAME    = EARTH
REF_FRAME      = TEME
TIME_SYSTEM    = UTC
MEAN_ELEMENT_THEORY = SGP/SGP4

EPOCH          = 2026-04-04T06:29:22.726752
MEAN_MOTION    = 14.14374933
ECCENTRICITY   = .00093396
INCLINATION    = 71.0505
RA_OF_ASC_NODE = 121.5800
ARG_OF_PERICENTER = 335.5362
MEAN_ANOMALY   = 24.5316

EPHEMERIS_TYPE = 0
CLASSIFICATION_TYPE = U
NORAD_CAT_ID   = 23087
ELEMENT_SET_NO = 999
REV_AT_EPOCH   = 64842
BSTAR          = .31540029E-4
MEAN_MOTION_DOT = .13E-6
MEAN_MOTION_DDOT = 0

CCSDS_OMM_VERS = 2.0
CREATION_DATE  = 
ORIGINATOR     = 

OBJECT_NAME    = SL-16 R/B
OBJECT_ID      = 1994-023B
CENTER_NAME    = EARTH
REF_FRAME      = TEME
TIME_SYSTEM    = UTC
MEAN_ELEMENT_THEORY = SGP/SGP4

EPOCH          = 2026-04-04T05:37:54.325920
MEAN_MOTION    = 14.15019614
ECCENTRICITY   = .00055886
INCLINATION    = 71.0031
RA_OF_ASC_NODE = 17.2394
ARG_OF_PERICENTER = 263.3895
MEAN_ANOMALY   = 96.6591

EPHEMERIS_TYPE = 0
CLASSIFICATION_TYPE = U
NORAD_CAT_ID   = 23088
ELEMENT_SET_NO = 999
REV_AT_EPOCH   = 64970
BSTAR          = .11946403E-3
MEAN_MOTION_DOT = .184E-5
MEAN_MOTION_DDOT = 0

CCSDS_OMM_VERS = 2.0
CREATION_DATE  = 
ORIGINATOR     = 

OBJECT_NAME    = SL-16 R/B
OBJECT_ID      = 1994-074B
CENTER_NAME    = EARTH
REF_FRAME      = TEME
TIME_SYSTEM    = UTC
MEAN_ELEMENT_THEORY = SGP/SGP4

EPOCH          = 2026-04-04T02:08:02.752800
MEAN_MOTION    = 14.79439412
ECCENTRICITY   = .00076843
INCLINATION    = 97.7070
RA_OF_ASC_NODE = 123.8739
ARG_OF_PERICENTER = 130.6619
MEAN_ANOMALY   = 289.9702

EPHEMERIS_TYPE = 0
CLASSIFICATION_TYPE = U
NORAD_CAT_ID   = 23343
ELEMENT_SET_NO = 999
REV_AT_EPOCH   = 69100
BSTAR          = .11641776E-3
MEAN_MOTION_DOT = .82E-5
MEAN_MOTION_DDOT = 0

CCSDS_OMM_VERS = 2.0
CREATION_DATE  = 
ORIGINATOR     = 

OBJECT_NAME    = SL-16 R/B
OBJECT_ID      = 1994-077B
CENTER_NAME    = EARTH
REF_FRAME      = TEME
TIME_SYSTEM    = UTC
MEAN_ELEMENT_THEORY = SGP/SGP4

EPOCH          = 2026-04-03T23:51:47.361888
MEAN_MOTION    = 14.15568198
ECCENTRICITY   = .00016048
INCLINATION    = 70.9821
RA_OF_ASC_NODE = 299.2542
ARG_OF_PERICENTER = 190.0745
MEAN_ANOMALY   = 170.0346

EPHEMERIS_TYPE = 0
CLASSIFICATION_TYPE = U
NORAD_CAT_ID   = 23405
ELEMENT_SET_NO = 999
REV_AT_EPOCH   = 61981
BSTAR          = -.72958311E-4
MEAN_MOTION_DOT = -.191E-5
MEAN_MOTION_DDOT = 0

CCSDS_OMM_VERS = 2.0
CREATION_DATE  = 
ORIGINATOR     = 

OBJECT_NAME    = ARIANE 40+ R/B
OBJECT_ID      = 1995-021B
CENTER_NAME    = EARTH
REF_FRAME      = TEME
TIME_SYSTEM    = UTC
MEAN_ELEMENT_THEORY = SGP/SGP4

EPOCH          = 2026-04-04T04:20:58.736832
MEAN_MOTION    = 14.39792168
ECCENTRICITY   = .00078345
INCLINATION    = 98.4453
RA_OF_ASC_NODE = 165.3128
ARG_OF_PERICENTER = 70.9108
MEAN_ANOMALY   = 343.4137

EPHEMERIS_TYPE = 0
CLASSIFICATION_TYPE = U
NORAD_CAT_ID   = 23561
ELEMENT_SET_NO = 999
REV_AT_EPOCH   = 62291
BSTAR          = .16485882E-3
MEAN_MOTION_DOT = .474E-5
MEAN_MOTION_DDOT = 0

CCSDS_OMM_VERS = 2.0
CREATION_DATE  = 
ORIGINATOR     = 

OBJECT_NAME    = SL-16 R/B
OBJECT_ID      = 1995-058B
CENTER_NAME    = EARTH
REF_FRAME      = TEME
TIME_SYSTEM    = UTC
MEAN_ELEMENT_THEORY = SGP/SGP4

EPOCH          = 2026-04-04T06:50:41.218656
MEAN_MOTION    = 14.15497841
ECCENTRICITY   = .00102999
INCLINATION    = 71.0191
RA_OF_ASC_NODE = 126.5202
ARG_OF_PERICENTER = 78.8463
MEAN_ANOMALY   = 281.3818

EPHEMERIS_TYPE = 0
CLASSIFICATION_TYPE = U
NORAD_CAT_ID   = 23705
ELEMENT_SET_NO = 999
REV_AT_EPOCH   = 57147
BSTAR          = .3353256E-5
MEAN_MOTION_DOT = -.41E-6
MEAN_MOTION_DDOT = 0

CCSDS_OMM_VERS = 2.0
CREATION_DATE  = 
ORIGINATOR     = 

OBJECT_NAME    = SL-16 R/B
OBJECT_ID      = 1996-051B
CENTER_NAME    = EARTH
REF_FRAME      = TEME
TIME_SYSTEM    = UTC
MEAN_ELEMENT_THEORY = SGP/SGP4

EPOCH          = 2026-04-04T05:40:46.209216
MEAN_MOTION    = 14.12423468
ECCENTRICITY   = .00131021
INCLINATION    = 70.7581
RA_OF_ASC_NODE = 121.1671
ARG_OF_PERICENTER = 106.0632
MEAN_ANOMALY   = 254.1932

EPHEMERIS_TYPE = 0
CLASSIFICATION_TYPE = U
NORAD_CAT_ID   = 24298
ELEMENT_SET_NO = 999
REV_AT_EPOCH   = 52525
BSTAR          = .97419065E-4
MEAN_MOTION_DOT = .131E-5
MEAN_MOTION_DDOT = 0

CCSDS_OMM_VERS = 2.0
CREATION_DATE  = 
ORIGINATOR     = 

OBJECT_NAME    = ORBVIEW 2 (SEASTAR)
OBJECT_ID      = 1997-037A
CENTER_NAME    = EARTH
REF_FRAME      = TEME
TIME_SYSTEM    = UTC
MEAN_ELEMENT_THEORY = SGP/SGP4

EPOCH          = 2026-04-04T04:58:46.741152
MEAN_MOTION    = 14.35514238
ECCENTRICITY   = .00020774
INCLINATION    = 98.8611
RA_OF_ASC_NODE = 259.2014
ARG_OF_PERICENTER = 14.3141
MEAN_ANOMALY   = 345.8103

EPHEMERIS_TYPE = 0
CLASSIFICATION_TYPE = U
NORAD_CAT_ID   = 24883
ELEMENT_SET_NO = 999
REV_AT_EPOCH   = 51213
BSTAR          = .17044053E-3
MEAN_MOTION_DOT = .444E-5
MEAN_MOTION_DDOT = 0

CCSDS_OMM_VERS = 2.0
CREATION_DATE  = 
ORIGINATOR     = 

OBJECT_NAME    = SL-16 R/B
OBJECT_ID      = 1998-043G
CENTER_NAME    = EARTH
REF_FRAME      = TEME
TIME_SYSTEM    = UTC
MEAN_ELEMENT_THEORY = SGP/SGP4

EPOCH          = 2026-04-04T06:30:14.275584
MEAN_MOTION    = 14.26056094
ECCENTRICITY   = .000896
INCLINATION    = 98.8298
RA_OF_ASC_NODE = 47.8227
ARG_OF_PERICENTER = 304.2390
MEAN_ANOMALY   = 55.7940

EPHEMERIS_TYPE = 0
CLASSIFICATION_TYPE = U
NORAD_CAT_ID   = 25400
ELEMENT_SET_NO = 999
REV_AT_EPOCH   = 44263
BSTAR          = .63825582E-4
MEAN_MOTION_DOT = .107E-5
MEAN_MOTION_DDOT = 0

